{
  "norad_id": 57524,
  "name": "STARLINK-30260",
  "history": [
    {
      "epoch": "2026-03-28T17:33:39.739680Z",
      "apogee_km": 484.1687429458507,
      "perigee_km": 481.90647645354056,
      "latitude_deg": -1.3704613752142172e-05,
      "longitude_deg": 164.4952612888474,
      "height_km": 482.672168849788,
      "semi_major_axis_km": 6861.174609699696,
      "eccentricity": 0.00016486,
      "inclination_deg": 43.0024,
      "raan_deg": 254.0588,
      "arg_perigee_deg": 277.2436,
      "mean_anomaly_deg": 82.8228,
      "mean_motion_rev_day": 15.27583836
    }
  ]
}