{"fetched_at":"2026-03-29T16:36:15Z","count":15609,"tles":[{"name":"STARLINK-30260","line1":"1 57524U 23115D   26087.73170995  .00002449  00000+0  98492-4 0  9993","line2":"2 57524  43.0024 254.0588 0001648 277.2436  82.8228 15.27583836145266","category":"Starlink"}]}